CSS (TIANHE)            
1 48274U 21035A   24161.81190593  .00023961  00000+0  27387-3 0  9996
2 48274  41.4677 128.0689 0002681 201.6435 158.4291 15.61600825177940
